[Satellite]
VERSION=1.1
NAME=IRIDIUM 137 [+]
NICKNAME=IRIDIUM 137 [+]
TLE1=1 43076U 17083G   20157.75605565  .00000083  00000-0  22684-4 0  9990
TLE2=2 43076  86.3976 162.4943 0002522  97.4957 262.6525 14.34216900128494
STATUS=0
